[{"OBJECT_NAME":"STARLINK-5589","OBJECT_ID":"2023-099G","EPOCH":"2026-03-09T13:11:38.222880","MEAN_MOTION":15.02535677,"ECCENTRICITY":0.00010654,"INCLINATION":43.0027,"RA_OF_ASC_NODE":249.8912,"ARG_OF_PERICENTER":280.1338,"MEAN_ANOMALY":79.9384,"EPHEMERIS_TYPE":0,"CLASSIFICATION_TYPE":"U","NORAD_CAT_ID":57334,"ELEMENT_SET_NO":999,"REV_AT_EPOCH":14609,"BSTAR":9.777834e-5,"MEAN_MOTION_DOT":1.117e-5,"MEAN_MOTION_DDOT":0},{"OBJECT_NAME":"SL-8 DEB","OBJECT_ID":"1977-119E","EPOCH":"2026-03-08T21:50:26.826144","MEAN_MOTION":15.02521055,"ECCENTRICITY":0.00060399,"INCLINATION":74.0225,"RA_OF_ASC_NODE":39.6743,"ARG_OF_PERICENTER":252.2066,"MEAN_ANOMALY":138.7099,"EPHEMERIS_TYPE":0,"CLASSIFICATION_TYPE":"U","NORAD_CAT_ID":18512,"ELEMENT_SET_NO":999,"REV_AT_EPOCH":19339,"BSTAR":0.0013899008,"MEAN_MOTION_DOT":0.00018486,"MEAN_MOTION_DDOT":0}]
